OBJECT_NAME,OBJECT_ID,EPOCH,MEAN_MOTION,ECCENTRICITY,INCLINATION,RA_OF_ASC_NODE,ARG_OF_PERICENTER,MEAN_ANOMALY,EPHEMERIS_TYPE,CLASSIFICATION_TYPE,NORAD_CAT_ID,ELEMENT_SET_NO,REV_AT_EPOCH,BSTAR,MEAN_MOTION_DOT,MEAN_MOTION_DDOT
KUIPER-00590,2026-118K,2026-06-16T20:45:44.642592,15.37917333,.0004525,51.8689,54.7743,159.3802,200.7369,0,U,69276,999,393,.49685E-3,.18471E-3,0
KUIPER-00592,2026-118L,2026-06-16T20:42:10.429344,15.38085925,.0003694,51.8712,54.7579,132.7085,227.4214,0,U,69277,999,393,.35133E-3,.13008E-3,0
KUIPER-00593,2026-118M,2026-06-16T20:43:11.576352,15.38044345,.0003868,51.8718,54.7615,152.7728,207.3462,0,U,69278,999,399,.35011E-3,.12943E-3,0
KUIPER-00594,2026-118N,2026-06-16T20:31:42.930336,15.38659343,.0001058,51.8723,54.7093,76.1962,283.9143,0,U,69279,999,393,.47631E-3,.18127E-3,0
KUIPER-00595,2026-118P,2026-06-16T20:34:49.899936,15.38553831,.0001738,51.8714,54.7252,133.9376,226.1754,0,U,69280,999,396,.35078E-3,.1319E-3,0
KUIPER-00596,2026-118Q,2026-06-16T19:50:36.761568,15.34692367,.0012665,51.8555,55.2478,183.3828,176.7074,0,U,69281,999,392,.52998E-3,.17794E-3,0
KUIPER-00597,2026-118R,2026-06-16T19:24:36.565056,15.37030695,.000714,51.8654,55.1422,170.5103,189.6020,0,U,69282,999,392,.66901E-3,.24322E-3,0
KUIPER-00599,2026-118S,2026-06-16T19:20:32.574048,15.37389892,.0006124,51.8701,55.1264,162.5646,197.5552,0,U,69283,999,392,.48994E-3,.17898E-3,0
KUIPER-00600,2026-118T,2026-06-16T19:30:34.691328,15.36737861,.0008623,51.8651,55.1694,172.4146,187.6973,0,U,69284,999,392,.55931E-3,.20072E-3,0
KUIPER-00601,2026-118U,2026-06-16T20:49:16.197312,15.37651838,.0004682,51.8711,54.7901,152.5288,207.5947,0,U,69285,999,393,.33786E-3,.12315E-3,0
KUIPER-00602,2026-118V,2026-06-16T20:40:57.333216,15.38175438,.0002952,51.8705,54.7535,144.3646,215.7538,0,U,69286,999,393,.33445E-3,.12399E-3,0
KUIPER-00603,2026-118W,2026-06-16T20:51:06.210432,15.37570272,.0005459,51.8679,54.7981,158.7723,201.3491,0,U,69287,999,393,.38545E-3,.14072E-3,0
KUIPER-00605,2026-118X,2026-06-16T19:25:33.659040,15.37045033,.0007558,51.8672,55.1469,166.7048,193.4139,0,U,69288,999,392,.4811E-3,.17374E-3,0
KUIPER-00606,2026-118Y,2026-06-16T20:47:25.448928,15.37684809,.0004704,51.8702,54.7822,151.9609,208.1632,0,U,69289,999,393,.31622E-3,.11512E-3,0
KUIPER-00607,2026-118Z,2026-06-16T20:52:45.369984,15.37436797,.0006071,51.8688,54.8059,160.0224,200.1001,0,U,69290,999,393,.33962E-3,.12295E-3,0
KUIPER-00608,2026-118AA,2026-06-16T19:42:04.127040,15.35257941,.0008467,51.8614,55.2158,176.0982,184.0072,0,U,69291,999,392,.53013E-3,.18104E-3,0
KUIPER-00610,2026-118AB,2026-06-16T20:37:56.674272,15.38386073,.0002739,51.8721,54.7363,135.5442,224.5765,0,U,69292,999,393,.38114E-3,.14288E-3,0
KUIPER-00613,2026-118AC,2026-06-16T19:48:40.150944,15.34998807,.0009941,51.8633,55.2485,181.8008,178.2943,0,U,69293,999,392,.54244E-3,.18387E-3,0
KUIPER-00618,2026-118AD,2026-06-16T20:32:25.560096,15.38643848,.0001803,51.8721,54.7110,88.5980,271.5214,0,U,69294,999,393,.47098E-3,.1791E-3,0
KUIPER-00620,2026-118AE,2026-06-16T20:37:09.746112,15.38302601,.0002863,51.8719,54.7343,118.8108,241.3167,0,U,69295,999,393,.33757E-3,.12572E-3,0
STARLINK-37501,2026-119A,2026-06-16T20:00:01.999008,15.66572258,.0001648,97.2838,193.6169,86.4473,205.7009,0,U,69296,999,383,-.27241E-1,-.2483073E-1,0
STARLINK-37496,2026-119B,2026-06-16T20:00:01.999008,15.64649853,.0001463,97.2838,193.6140,162.9653,123.8372,0,U,69297,999,383,-.18007E-1,-.1549142E-1,0
STARLINK-37519,2026-119C,2026-06-16T20:00:01.999008,15.66576830,.0001155,97.2839,193.6255,100.3121,211.8879,0,U,69298,999,383,-.29123E-1,-.2631048E-1,0
STARLINK-37455,2026-119D,2026-06-16T20:00:01.999008,15.55498036,.0001795,97.2848,193.5725,74.8306,105.9472,0,U,69299,999,383,-.2762E-1,-.1687931E-1,0
STARLINK-37456,2026-119E,2026-06-16T20:00:01.999008,15.64938810,.0001234,97.2837,193.6261,86.5631,228.4397,0,U,69300,999,383,-.29922E-1,-.2543934E-1,0
STARLINK-37630,2026-119F,2026-06-16T20:00:01.999008,15.49130165,.0001129,97.2843,193.4990,74.2526,300.4223,0,U,69301,999,398,.99156E-3,.54097E-3,0
STARLINK-37804,2026-119G,2026-06-16T20:00:01.999008,15.49162176,.0001412,97.2842,193.4947,86.6789,280.8924,0,U,69302,999,398,.44114E-3,.23953E-3,0
STARLINK-37730,2026-119H,2026-06-16T20:00:01.999008,15.71871781,.0001836,97.2841,193.6587,86.7747,306.5127,0,U,69303,999,398,-.22144E-1,-.2511246E-1,0
STARLINK-37731,2026-119J,2026-06-16T20:00:01.999008,15.49170527,.0001323,97.2846,193.4930,67.3387,294.2212,0,U,69304,999,398,.72954E-3,.39762E-3,0
STARLINK-37734,2026-119K,2026-06-16T20:00:01.999008,15.64700784,.0000945,97.2836,193.6243,82.5440,230.5975,0,U,69305,999,398,-.23494E-1,-.2000676E-1,0
