KUIPER-00590            
1 69276U 26118K   26167.86510003  .00018471  00000+0  49685-3 0  9998
2 69276  51.8689  54.7743 0004525 159.3802 200.7369 15.37917333  3937
KUIPER-00592            
1 69277U 26118L   26167.86262071  .00013008  00000+0  35133-3 0  9992
2 69277  51.8712  54.7579 0003694 132.7085 227.4214 15.38085925  3935
KUIPER-00593            
1 69278U 26118M   26167.86332843  .00012943  00000+0  35011-3 0  9990
2 69278  51.8718  54.7615 0003868 152.7728 207.3462 15.38044345  3991
KUIPER-00594            
1 69279U 26118N   26167.85535799  .00018127  00000+0  47631-3 0  9996
2 69279  51.8723  54.7093 0001058  76.1962 283.9143 15.38659343  3936
KUIPER-00595            
1 69280U 26118P   26167.85752199  .00013190  00000+0  35078-3 0  9990
2 69280  51.8714  54.7252 0001738 133.9376 226.1754 15.38553831  3966
KUIPER-00596            
1 69281U 26118Q   26167.82681437  .00017794  00000+0  52998-3 0  9998
2 69281  51.8555  55.2478 0012665 183.3828 176.7074 15.34692367  3923
KUIPER-00597            
1 69282U 26118R   26167.80875654  .00024322  00000+0  66901-3 0  9997
2 69282  51.8654  55.1422 0007140 170.5103 189.6020 15.37030695  3925
KUIPER-00599            
1 69283U 26118S   26167.80593257  .00017898  00000+0  48994-3 0  9996
2 69283  51.8701  55.1264 0006124 162.5646 197.5552 15.37389892  3921
KUIPER-00600            
1 69284U 26118T   26167.81290152  .00020072  00000+0  55931-3 0  9993
2 69284  51.8651  55.1694 0008623 172.4146 187.6973 15.36737861  3923
KUIPER-00601            
1 69285U 26118U   26167.86754858  .00012315  00000+0  33786-3 0  9992
2 69285  51.8711  54.7901 0004682 152.5288 207.5947 15.37651838  3938
KUIPER-00602            
1 69286U 26118V   26167.86177469  .00012399  00000+0  33445-3 0  9994
2 69286  51.8705  54.7535 0002952 144.3646 215.7538 15.38175438  3935
KUIPER-00603            
1 69287U 26118W   26167.86882188  .00014072  00000+0  38545-3 0  9992
2 69287  51.8679  54.7981 0005459 158.7723 201.3491 15.37570272  3934
KUIPER-00605            
1 69288U 26118X   26167.80941735  .00017374  00000+0  48110-3 0  9998
2 69288  51.8672  55.1469 0007558 166.7048 193.4139 15.37045033  3926
KUIPER-00606            
1 69289U 26118Y   26167.86626677  .00011512  00000+0  31622-3 0  9998
2 69289  51.8702  54.7822 0004704 151.9609 208.1632 15.37684809  3931
KUIPER-00607            
1 69290U 26118Z   26167.86996956  .00012295  00000+0  33962-3 0  9998
2 69290  51.8688  54.8059 0006071 160.0224 200.1001 15.37436797  3935
KUIPER-00608            
1 69291U 26118AA  26167.82088110  .00018104  00000+0  53013-3 0  9993
2 69291  51.8614  55.2158 0008467 176.0982 184.0072 15.35257941  3926
KUIPER-00610            
1 69292U 26118AB  26167.85968373  .00014288  00000+0  38114-3 0  9999
2 69292  51.8721  54.7363 0002739 135.5442 224.5765 15.38386073  3937
KUIPER-00613            
1 69293U 26118AC  26167.82546471  .00018387  00000+0  54244-3 0  9994
2 69293  51.8633  55.2485 0009941 181.8008 178.2943 15.34998807  3927
KUIPER-00618            
1 69294U 26118AD  26167.85585139  .00017910  00000+0  47098-3 0  9992
2 69294  51.8721  54.7110 0001803  88.5980 271.5214 15.38643848  3931
KUIPER-00620            
1 69295U 26118AE  26167.85914058  .00012572  00000+0  33757-3 0  9995
2 69295  51.8719  54.7343 0002863 118.8108 241.3167 15.38302601  3934
STARLINK-37501          
1 69296U 26119A   26167.83335647 -.02483073  00000+0 -27241-1 0  9997
2 69296  97.2838 193.6169 0001648  86.4473 205.7009 15.66572258  3831
STARLINK-37496          
1 69297U 26119B   26167.83335647 -.01549142  00000+0 -18007-1 0  9997
2 69297  97.2838 193.6140 0001463 162.9653 123.8372 15.64649853  3833
STARLINK-37519          
1 69298U 26119C   26167.83335647 -.02631048  00000+0 -29123-1 0  9997
2 69298  97.2839 193.6255 0001155 100.3121 211.8879 15.66576830  3832
STARLINK-37455          
1 69299U 26119D   26167.83335647 -.01687931  00000+0 -27620-1 0  9999
2 69299  97.2848 193.5725 0001795  74.8306 105.9472 15.55498036  3835
STARLINK-37456          
1 69300U 26119E   26167.83335647 -.02543934  00000+0 -29922-1 0  9994
2 69300  97.2837 193.6261 0001234  86.5631 228.4397 15.64938810  3837
STARLINK-37630          
1 69301U 26119F   26167.83335647  .00054097  00000+0  99156-3 0  9996
2 69301  97.2843 193.4990 0001129  74.2526 300.4223 15.49130165  3987
STARLINK-37804          
1 69302U 26119G   26167.83335647  .00023953  00000+0  44114-3 0  9998
2 69302  97.2842 193.4947 0001412  86.6789 280.8924 15.49162176  3988
STARLINK-37730          
1 69303U 26119H   26167.83335647 -.02511246  00000+0 -22144-1 0  9997
2 69303  97.2841 193.6587 0001836  86.7747 306.5127 15.71871781  3980
STARLINK-37731          
1 69304U 26119J   26167.83335647  .00039762  00000+0  72954-3 0  9998
2 69304  97.2846 193.4930 0001323  67.3387 294.2212 15.49170527  3985
STARLINK-37734          
1 69305U 26119K   26167.83335647 -.02000676  00000+0 -23494-1 0  9998
2 69305  97.2836 193.6243 0000945  82.5440 230.5975 15.64700784  3982
